[{"OBJECT_NAME":"SAPPHIRE","OBJECT_ID":"2013-009C","EPOCH":"2026-03-09T22:57:28.647648","MEAN_MOTION":14.35209243,"ECCENTRICITY":0.00112275,"INCLINATION":98.4222,"RA_OF_ASC_NODE":250.7769,"ARG_OF_PERICENTER":178.7646,"MEAN_ANOMALY":181.357,"EPHEMERIS_TYPE":0,"CLASSIFICATION_TYPE":"U","NORAD_CAT_ID":39088,"ELEMENT_SET_NO":999,"REV_AT_EPOCH":68234,"BSTAR":9.3997997e-5,"MEAN_MOTION_DOT":2.26e-6,"MEAN_MOTION_DDOT":0},{"OBJECT_NAME":"CBERS 2 (ZY 1B)","OBJECT_ID":"2003-049A","EPOCH":"2026-03-09T21:07:54.871680","MEAN_MOTION":14.36699844,"ECCENTRICITY":0.00019551,"INCLINATION":98.7449,"RA_OF_ASC_NODE":39.1098,"ARG_OF_PERICENTER":87.7716,"MEAN_ANOMALY":272.3694,"EPHEMERIS_TYPE":0,"CLASSIFICATION_TYPE":"U","NORAD_CAT_ID":28057,"ELEMENT_SET_NO":999,"REV_AT_EPOCH":17292,"BSTAR":0.00011531746,"MEAN_MOTION_DOT":2.94e-6,"MEAN_MOTION_DDOT":0}]
